STARLINK-1826
1 46723U 20073BF  26090.24925802  .00103251  00000+0  10207-2 0  9996
2 46723  53.0464  75.0349 0002368 318.8739  41.2097 15.65092242301364
